[{"OBJECT_NAME":"STARLINK-32133","OBJECT_ID":"2024-136E","EPOCH":"2026-03-09T21:38:05.379360","MEAN_MOTION":15.30195197,"ECCENTRICITY":0.00012385,"INCLINATION":53.1606,"RA_OF_ASC_NODE":74.9208,"ARG_OF_PERICENTER":86.9167,"MEAN_ANOMALY":273.1976,"EPHEMERIS_TYPE":0,"CLASSIFICATION_TYPE":"U","NORAD_CAT_ID":60333,"ELEMENT_SET_NO":999,"REV_AT_EPOCH":8969,"BSTAR":2.8447884e-5,"MEAN_MOTION_DOT":4.83e-6,"MEAN_MOTION_DDOT":0},{"OBJECT_NAME":"KUIPER-00208","OBJECT_ID":"2026-030M","EPOCH":"2026-03-09T16:08:08.024640","MEAN_MOTION":15.32208734,"ECCENTRICITY":0.00155248,"INCLINATION":51.8846,"RA_OF_ASC_NODE":219.6993,"ARG_OF_PERICENTER":57.3146,"MEAN_ANOMALY":302.9333,"EPHEMERIS_TYPE":0,"CLASSIFICATION_TYPE":"U","NORAD_CAT_ID":67775,"ELEMENT_SET_NO":999,"REV_AT_EPOCH":508,"BSTAR":0.0013882708,"MEAN_MOTION_DOT":0.00043852,"MEAN_MOTION_DDOT":0}]
